ORBCOMM FM24 [-]        
1 25478U 98053D   23302.83137106  .00001947  00000+0  72892-3 0  9991
2 25478  45.0083 208.8080 0000877  40.3268 319.7644 14.34829592311702
ORBCOMM FM25 [-]        
1 25479U 98053E   23303.14354970  .00001850  00000+0  69537-3 0  9992
2 25479  45.0076 205.5697 0002501 132.0871 228.0189 14.34810863312043
ORBCOMM FM26 [-]        
1 25480U 98053F   23303.15315389  .00001560  00000+0  59913-3 0  9991
2 25480  45.0069 198.9198 0004506 165.4234 194.6743 14.34372056312094
ORBCOMM FM27 [+]        
1 25481U 98053G   23303.40707973  .00001887  00000+0  70858-3 0  9997
2 25481  45.0059 204.5834 0001611 335.8710  24.2061 14.34787337312050
ORBCOMM FM28 [-]        
1 25482U 98053H   23303.45626152  .00001496  00000+0  56665-3 0  9998
2 25482  45.0055 143.5052 0003594 187.5050 172.5744 14.35271784312850
ORBCOMM FM30 [-]        
1 25980U 99065A   23303.13354703  .00001708  00000+0  64952-3 0  9994
2 25980  45.0335  24.3496 0007576 259.0522 100.9473 14.34502242249314
ORBCOMM FM31 [-]        
1 25981U 99065B   23302.89197851  .00001744  00000+0  66196-3 0  9998
2 25981  45.0250  19.3381 0004517 270.7228  89.3101 14.34530841249272
ORBCOMM FM32 [+]        
1 25982U 99065C   23303.22101543  .00001651  00000+0  64243-3 0  9998
2 25982  45.0174  30.1705 0006465 278.8062  81.2052 14.33472355249133
